start=new Date('2022-12-21T00:00:00.000Z').valueOf();
sats=[{"REF_FRAME":"TEME","MEAN_MOTION":"15.08854244","LAUNCH_DATE":"2022-05-06","NORAD_CAT_ID":"52464","GP_ID":"221027359","FILE":"3713130","TIME_SYSTEM":"UTC","DECAY_DATE":null,"RA_OF_ASC_NODE":"294.4239","CENTER_NAME":"EARTH","MEAN_MOTION_DDOT":"0.0000000000000","TLE_LINE2":"2 52464  53.2182 294.4239 0002216  32.1358 327.9769 15.08854244 34843","EPHEMERIS_TYPE":"0","MEAN_MOTION_DOT":"0.00002792","EPOCH":"2022-12-20T13:45:47.815776","BSTAR":"0.00019341000000","MEAN_ANOMALY":"327.9769","PERIAPSIS":"538.169","INCLINATION":"53.2182","APOAPSIS":"541.235","ECCENTRICITY":"0.00022160","ELEMENT_SET_NO":"999","OBJECT_NAME":"STARLINK-3904","OBJECT_TYPE":"PAYLOAD","CLASSIFICATION_TYPE":"U","SEMIMAJOR_AXIS":"6917.837","OBJECT_ID":"2022-049P","REV_AT_EPOCH":"3484","MEAN_ELEMENT_THEORY":"SGP4","ARG_OF_PERICENTER":"32.1358","SITE":"AFETR","COUNTRY_CODE":"US","RCS_SIZE":"LARGE","TLE_LINE1":"1 52464U 22049P   22354.57347009  .00002792  00000-0  19341-3 0  9990","PERIOD":"95.437"},{"CENTER_NAME":"EARTH","MEAN_MOTION_DDOT":"0.0000000000000","TLE_LINE2":"2 52465  53.2186 282.9635 0002866  31.2571 328.8592 15.08836875 35191","EPHEMERIS_TYPE":"0","MEAN_MOTION_DOT":"-0.00001744","EPOCH":"2022-12-20T21:33:28.742976","BSTAR":"-0.00009145600000","MEAN_ANOMALY":"328.8592","DECAY_DATE":null,"RA_OF_ASC_NODE":"282.9635","NORAD_CAT_ID":"52465","LAUNCH_DATE":"2022-05-06","GP_ID":"221046876","FILE":"3714262","TIME_SYSTEM":"UTC","REF_FRAME":"TEME","MEAN_MOTION":"15.08836875","ARG_OF_PERICENTER":"31.2571","SITE":"AFETR","COUNTRY_CODE":"US","RCS_SIZE":"LARGE","PERIOD":"95.438","TLE_LINE1":"1 52465U 22049Q   22354.89824934 -.00001744  00000-0 -91456-4 0  9999","SEMIMAJOR_AXIS":"6917.890","OBJECT_ID":"2022-049Q","REV_AT_EPOCH":"3519","MEAN_ELEMENT_THEORY":"SGP4","ECCENTRICITY":"0.00028660","ELEMENT_SET_NO":"999","OBJECT_NAME":"STARLINK-3863","OBJECT_TYPE":"PAYLOAD","CLASSIFICATION_TYPE":"U","PERIAPSIS":"537.772","INCLINATION":"53.2186","APOAPSIS":"541.738"},{"RCS_SIZE":"LARGE","COUNTRY_CODE":"US","TLE_LINE1":"1 52466U 22049R   22354.82739147 -.00016028  00000-0 -99128-3 0  9998","PERIOD":"95.438","SITE":"AFETR","ARG_OF_PERICENTER":"24.3025","MEAN_ELEMENT_THEORY":"SGP4","SEMIMAJOR_AXIS":"6917.904","REV_AT_EPOCH":"3504","OBJECT_ID":"2022-049R","CLASSIFICATION_TYPE":"U","OBJECT_NAME":"STARLINK-3840","ELEMENT_SET_NO":"999","ECCENTRICITY":"0.00031060","OBJECT_TYPE":"PAYLOAD","PERIAPSIS":"537.620","APOAPSIS":"541.918","INCLINATION":"53.2189","EPOCH":"2022-12-20T19:51:26.623008","MEAN_MOTION_DOT":"-0.00016028","BSTAR":"-0.00099128000000","EPHEMERIS_TYPE":"0","MEAN_ANOMALY":"335.8113","MEAN_MOTION_DDOT":"0.0000000000000","CENTER_NAME":"EARTH","TLE_LINE2":"2 52466  53.2189 293.2803 0003106  24.3025 335.8113 15.08832301 35043","DECAY_DATE":null,"RA_OF_ASC_NODE":"293.2803","TIME_SYSTEM":"UTC","FILE":"3714253","NORAD_CAT_ID":"52466","LAUNCH_DATE":"2022-05-06","GP_ID":"221047286","MEAN_MOTION":"15.08832301","REF_FRAME":"TEME"},{"TLE_LINE2":"2 52467  53.2185 294.4573 0001952  53.5946 306.5226 15.08835849 34847","MEAN_MOTION_DDOT":"0.0000000000000","CENTER_NAME":"EARTH","MEAN_ANOMALY":"306.5226","BSTAR":"-0.00000177970000","MEAN_MOTION_DOT":"-0.00000316","EPOCH":"2022-12-20T13:35:14.215200","EPHEMERIS_TYPE":"0","RA_OF_ASC_NODE":"294.4573","DECAY_DATE":null,"GP_ID":"221029111","LAUNCH_DATE":"2022-05-06","NORAD_CAT_ID":"52467","TIME_SYSTEM":"UTC","FILE":"3713130","REF_FRAME":"TEME","MEAN_MOTION":"15.08835849","ARG_OF_PERICENTER":"53.5946","SITE":"AFETR","PERIOD":"95.438","TLE_LINE1":"1 52467U 22049S   22354.56613675 -.00000316  00000-0 -17797-5 0  9994","RCS_SIZE":"LARGE","COUNTRY_CODE":"US","REV_AT_EPOCH":"3484","OBJECT_ID":"2022-049S","SEMIMAJOR_AXIS":"6917.893","MEAN_ELEMENT_THEORY":"SGP4","OBJECT_TYPE":"PAYLOAD","OBJECT_NAME":"STARLINK-3873","ELEMENT_SET_NO":"999","ECCENTRICITY":"0.00019520","CLASSIFICATION_TYPE":"U","APOAPSIS":"541.108","INCLINATION":"53.2185","PERIAPSIS":"538.408"},{"FILE":"3713130","TIME_SYSTEM":"UTC","NORAD_CAT_ID":"52468","LAUNCH_DATE":"2022-05-06","GP_ID":"221027860","MEAN_MOTION":"15.08870680","REF_FRAME":"TEME","EPHEMERIS_TYPE":"0","BSTAR":"0.00054742000000","MEAN_MOTION_DOT":"0.00008442","EPOCH":"2022-12-20T13:14:00.250656","MEAN_ANOMALY":"324.0479","CENTER_NAME":"EARTH","MEAN_MOTION_DDOT":"0.0000000000000","TLE_LINE2":"2 52468  53.2169 294.5273 0002564  36.0685 324.0479 15.08870680 34841","DECAY_DATE":null,"RA_OF_ASC_NODE":"294.5273","CLASSIFICATION_TYPE":"U","ELEMENT_SET_NO":"999","ECCENTRICITY":"0.00025640","OBJECT_NAME":"STARLINK-3864","OBJECT_TYPE":"PAYLOAD","PERIAPSIS":"537.878","INCLINATION":"53.2169","APOAPSIS":"541.425","COUNTRY_CODE":"US","RCS_SIZE":"LARGE","PERIOD":"95.436","TLE_LINE1":"1 52468U 22049T   22354.55139179  .00008442  00000-0  54742-3 0  9991","SITE":"AFETR","ARG_OF_PERICENTER":"36.0685","MEAN_ELEMENT_THEORY":"SGP4","SEMIMAJOR_AXIS":"6917.787","OBJECT_ID":"2022-049T","REV_AT_EPOCH":"3484"},{"INCLINATION":"53.2197","APOAPSIS":"541.332","PERIAPSIS":"538.187","OBJECT_TYPE":"PAYLOAD","ECCENTRICITY":"0.00022730","ELEMENT_SET_NO":"999","OBJECT_NAME":"STARLINK-3828","CLASSIFICATION_TYPE":"U","OBJECT_ID":"2022-049U","REV_AT_EPOCH":"3484","SEMIMAJOR_AXIS":"6917.895","MEAN_ELEMENT_THEORY":"SGP4","ARG_OF_PERICENTER":"40.6844","SITE":"AFETR","TLE_LINE1":"1 52469U 22049U   22354.55877318  .00001562  00000-0  11623-3 0  9993","PERIOD":"95.438","COUNTRY_CODE":"US","RCS_SIZE":"LARGE","REF_FRAME":"TEME","MEAN_MOTION":"15.08835312","GP_ID":"221028110","LAUNCH_DATE":"2022-05-06","NORAD_CAT_ID":"52469","FILE":"3713130","TIME_SYSTEM":"UTC","RA_OF_ASC_NODE":"294.4914","DECAY_DATE":null,"TLE_LINE2":"2 52469  53.2197 294.4914 0002273  40.6844 319.4318 15.08835312 34842","CENTER_NAME":"EARTH","MEAN_MOTION_DDOT":"0.0000000000000","MEAN_ANOMALY":"319.4318","EPHEMERIS_TYPE":"0","MEAN_MOTION_DOT":"0.00001562","EPOCH":"2022-12-20T13:24:38.002752","BSTAR":"0.00011623000000"},{"CLASSIFICATION_TYPE":"U","OBJECT_TYPE":"PAYLOAD","ECCENTRICITY":"0.00021460","ELEMENT_SET_NO":"999","OBJECT_NAME":"STARLINK-3859","INCLINATION":"53.2166","APOAPSIS":"541.169","PERIAPSIS":"538.200","PERIOD":"95.436","TLE_LINE1":"1 52470U 22049V   22354.54403838  .00007050  00000-0  46035-3 0  9999","COUNTRY_CODE":"US","RCS_SIZE":"LARGE","ARG_OF_PERICENTER":"37.6350","SITE":"AFETR","MEAN_ELEMENT_THEORY":"SGP4","REV_AT_EPOCH":"3484","OBJECT_ID":"2022-049V","SEMIMAJOR_AXIS":"6917.819","FILE":"3713130","TIME_SYSTEM":"UTC","GP_ID":"221028862","LAUNCH_DATE":"2022-05-06","NORAD_CAT_ID":"52470","MEAN_MOTION":"15.08860041","REF_FRAME":"TEME","MEAN_ANOMALY":"322.4792","EPHEMERIS_TYPE":"0","EPOCH":"2022-12-20T13:03:24.916032","MEAN_MOTION_DOT":"0.00007050","BSTAR":"0.00046035000000","TLE_LINE2":"2 52470  53.2166 294.5626 0002146  37.6350 322.4792 15.08860041 34845","CENTER_NAME":"EARTH","MEAN_MOTION_DDOT":"0.0000000000000","RA_OF_ASC_NODE":"294.5626","DECAY_DATE":null},{"MEAN_ELEMENT_THEORY":"SGP4","SEMIMAJOR_AXIS":"6917.867","OBJECT_ID":"2022-049W","REV_AT_EPOCH":"3505","RCS_SIZE":"LARGE","COUNTRY_CODE":"US","TLE_LINE1":"1 52471U 22049W   22354.88627336 -.00003708  00000-0 -21495-3 0  9999","PERIOD":"95.437","SITE":"AFETR","ARG_OF_PERICENTER":"29.9788","PERIAPSIS":"538.145","APOAPSIS":"541.319","INCLINATION":"53.2168","CLASSIFICATION_TYPE":"U","OBJECT_NAME":"STARLINK-3862","ELEMENT_SET_NO":"999","ECCENTRICITY":"0.00022940","OBJECT_TYPE":"PAYLOAD","DECAY_DATE":null,"RA_OF_ASC_NODE":"293.0172","MEAN_MOTION_DOT":"-0.00003708","EPOCH":"2022-12-20T21:16:14.018304","BSTAR":"-0.00021495000000","EPHEMERIS_TYPE":"0","MEAN_ANOMALY":"330.1335","MEAN_MOTION_DDOT":"0.0000000000000","CENTER_NAME":"EARTH","TLE_LINE2":"2 52471  53.2168 293.0172 0002294  29.9788 330.1335 15.08844511 35058","MEAN_MOTION":"15.08844511","REF_FRAME":"TEME","FILE":"3714305","TIME_SYSTEM":"UTC","LAUNCH_DATE":"2022-05-06","NORAD_CAT_ID":"52471","GP_ID":"221048321"},{"CENTER_NAME":"EARTH","MEAN_MOTION_DDOT":"0.0000000000000","TLE_LINE2":"2 52472  53.2172 294.5780 0002561  31.4933 328.6212 15.08860376 34841","EPHEMERIS_TYPE":"0","MEAN_MOTION_DOT":"0.00004233","BSTAR":"0.00028378000000","EPOCH":"2022-12-20T12:58:06.547584","MEAN_ANOMALY":"328.6212","DECAY_DATE":null,"RA_OF_ASC_NODE":"294.5780","LAUNCH_DATE":"2022-05-06","NORAD_CAT_ID":"52472","GP_ID":"221027360","TIME_SYSTEM":"UTC","FILE":"3713130","REF_FRAME":"TEME","MEAN_MOTION":"15.08860376","SITE":"AFETR","ARG_OF_PERICENTER":"31.4933","COUNTRY_CODE":"US","RCS_SIZE":"LARGE","TLE_LINE1":"1 52472U 22049X   22354.54035356  .00004233  00000-0  28378-3 0  9997","PERIOD":"95.436","SEMIMAJOR_AXIS":"6917.818","REV_AT_EPOCH":"3484","OBJECT_ID":"2022-049X","MEAN_ELEMENT_THEORY":"SGP4","ECCENTRICITY":"0.00025610","ELEMENT_SET_NO":"999","OBJECT_NAME":"STARLINK-3881","OBJECT_TYPE":"PAYLOAD","CLASSIFICATION_TYPE":"U","PERIAPSIS":"537.911","INCLINATION":"53.2172","APOAPSIS":"541.455"},{"PERIAPSIS":"538.011","INCLINATION":"53.2176","APOAPSIS":"541.434","CLASSIFICATION_TYPE":"U","ELEMENT_SET_NO":"999","ECCENTRICITY":"0.00024740","OBJECT_NAME":"STARLINK-3879","OBJECT_TYPE":"PAYLOAD","MEAN_ELEMENT_THEORY":"SGP4","SEMIMAJOR_AXIS":"6917.858","REV_AT_EPOCH":"3500","OBJECT_ID":"2022-049Y","COUNTRY_CODE":"US","RCS_SIZE":"LARGE","PERIOD":"95.437","TLE_LINE1":"1 52473U 22049Y   22354.54771440  .00004258  00000-0  28543-3 0  9990","SITE":"AFETR","ARG_OF_PERICENTER":"26.7302","MEAN_MOTION":"15.08847334","REF_FRAME":"TEME","FILE":"3714306","TIME_SYSTEM":"UTC","LAUNCH_DATE":"2022-05-06","NORAD_CAT_ID":"52473","GP_ID":"221047835","DECAY_DATE":null,"RA_OF_ASC_NODE":"294.5497","EPHEMERIS_TYPE":"0","MEAN_MOTION_DOT":"0.00004258","EPOCH":"2022-12-20T13:08:42.524160","BSTAR":"0.00028543000000","MEAN_ANOMALY":"333.3817","CENTER_NAME":"EARTH","MEAN_MOTION_DDOT":"0.0000000000000","TLE_LINE2":"2 52473  53.2176 294.5497 0002474  26.7302 333.3817 15.08847334 35003"}];
